COMMENT,ORIGINATOR,NORAD_CAT_ID,OBJECT_NAME,OBJECT_TYPE,CLASSIFICATION_TYPE,INTLDES,EPOCH,EPOCH_MICROSECONDS,MEAN_MOTION,ECCENTRICITY,INCLINATION,RA_OF_ASC_NODE,ARG_OF_PERICENTER,MEAN_ANOMALY,EPHEMERIS_TYPE,ELEMENT_SET_NO,REV_AT_EPOCH,BSTAR,MEAN_MOTION_DOT,MEAN_MOTION_DDOT,FILE,TLE_LINE0,TLE_LINE1,TLE_LINE2,OBJECT_ID,OBJECT_NUMBER,SEMIMAJOR_AXIS,PERIOD,APOGEE,PERIGEE,DECAYED
"GENERATED VIA SPACETRACK.ORG API","18 SPCS","48904","SPACEBEE-111","PAYLOAD","U","21059AB","2022-04-24 07:53:36","559968","15.15397557","0.0009509","97.5489","244.6378","290.4588","69.5622","0","999","4575","0.00075248","0.00014173","0","3414186","0 SPACEBEE-111","1 48904U 21059AB  22114.32889537  .00014173  00000-0  75248-3 0  9992","2 48904  97.5489 244.6378 0009509 290.4588  69.5622 15.15397557 45751","2021-059AB","48904","6897.909","95.025","526.333","513.215","1"
"GENERATED VIA SPACETRACK.ORG API","18 SPCS","48904","SPACEBEE-111","PAYLOAD","U","21059AB","2022-04-24 18:59:12","64704","15.15408403","0.0009547","97.5488","245.0971","288.6546","71.3649","0","999","4582","0.00069929","0.00013169","0","3414378","0 SPACEBEE-111","1 48904U 21059AB  22114.79111186  .00013169  00000-0  69929-3 0  9994","2 48904  97.5488 245.0971 0009547 288.6546  71.3649 15.15408403 45820","2021-059AB","48904","6897.876","95.024","526.326","513.156","1"
"GENERATED VIA SPACETRACK.ORG API","18 SPCS","48904","SPACEBEE-111","PAYLOAD","U","21059AB","2022-04-25 07:39:52","232256","15.15422126","0.0009565","97.5488","245.622","286.4873","73.5308","0","999","4590","0.00067489","0.00012711","0","3415659","0 SPACEBEE-111","1 48904U 21059AB  22115.31935454  .00012711  00000-0  67489-3 0  9996","2 48904  97.5488 245.6220 0009565 286.4873  73.5308 15.15422126 45905","2021-059AB","48904","6897.834","95.023","526.297","513.102","1"
"GENERATED VIA SPACETRACK.ORG API","18 SPCS","48904","SPACEBEE-111","PAYLOAD","U","21059AB","2022-04-25 14:00:12","148416","15.15429429","0.0009561","97.5487","245.8845","285.6274","74.3902","0","999","4594","0.00069396","0.00013075","0","3416090","0 SPACEBEE-111","1 48904U 21059AB  22115.58347394  .00013075  00000-0  69396-3 0  9998","2 48904  97.5487 245.8845 0009561 285.6274  74.3902 15.15429429 45947","2021-059AB","48904","6897.812","95.023","526.272","513.082","1"
"GENERATED VIA SPACETRACK.ORG API","18 SPCS","48904","SPACEBEE-111","PAYLOAD","U","21059AB","2022-04-26 02:40:51","674016","15.15442897","0.0009553","97.5489","246.4095","283.5647","76.4521","0","999","4602","0.00064626","0.00012175","0","3416291","0 SPACEBEE-111","1 48904U 21059AB  22116.11170919  .00012175  00000-0  64626-3 0  9996","2 48904  97.5489 246.4095 0009553 283.5647  76.4521 15.15442897 46029","2021-059AB","48904","6897.771","95.022","526.226","513.047","1"
"GENERATED VIA SPACETRACK.ORG API","18 SPCS","48904","SPACEBEE-111","PAYLOAD","U","21059AB","2022-04-26 07:26:06","370080","15.1544923","0.0009553","97.5489","246.6063","282.7858","77.2306","0","999","4605","0.00066349","0.00012504","0","3417035","0 SPACEBEE-111","1 48904U 21059AB  22116.30979595  .00012504  00000-0  66349-3 0  9994","2 48904  97.5489 246.6063 0009553 282.7858  77.2306 15.15449230 46052","2021-059AB","48904","6897.752","95.021","526.206","513.028","1"
"GENERATED VIA SPACETRACK.ORG API","18 SPCS","48904","SPACEBEE-111","PAYLOAD","U","21059AB","2022-04-26 21:41:50","73792","15.15468559","0.0009586","97.549","247.1968","280.5926","79.4226","0","999","4614","0.00076896","0.00014515","0","3417474","0 SPACEBEE-111","1 48904U 21059AB  22116.90405178  .00014515  00000-0  76896-3 0  9993","2 48904  97.5490 247.1968 0009586 280.5926  79.4226 15.15468559 46142","2021-059AB","48904","6897.693","95.020","526.171","512.946","1"
"GENERATED VIA SPACETRACK.ORG API","18 SPCS","48904","SPACEBEE-111","PAYLOAD","U","21059AB","2022-04-27 07:12:18","900864","15.1547888","0.0009544","97.5492","247.5905","279.0527","80.9625","0","999","4620","0.00071597","0.00013512","0","3418176","0 SPACEBEE-111","1 48904U 21059AB  22117.30021876  .00013512  00000-0  71597-3 0  9996","2 48904  97.5492 247.5905 0009544 279.0527  80.9625 15.15478880 46208","2021-059AB","48904","6897.662","95.019","526.110","512.944","1"
"GENERATED VIA SPACETRACK.ORG API","18 SPCS","48904","SPACEBEE-111","PAYLOAD","U","21059AB","2022-04-27 07:12:18","900864","15.1547888","0.0009544","97.5492","247.5905","279.0527","80.9625","0","999","4620","0.00071597","0.00013512","0","3418497","0 SPACEBEE-111","1 48904U 21059AB  22117.30021876  .00013512  00000-0  71597-3 0  9996","2 48904  97.5492 247.5905 0009544 279.0527  80.9625 15.15478880 46208","2021-059AB","48904","6897.662","95.019","526.110","512.944","1"
"GENERATED VIA SPACETRACK.ORG API","18 SPCS","48904","SPACEBEE-111","PAYLOAD","U","21059AB","2022-04-28 08:33:34","335360","15.15517704","0.0009484","97.5501","248.6405","275.2931","84.7219","0","999","4636","0.00096518","0.0001827","0","3419770","0 SPACEBEE-111","1 48904U 21059AB  22118.35664740  .00018270  00000-0  96518-3 0  9991","2 48904  97.5501 248.6405 0009484 275.2931  84.7219 15.15517704 46363","2021-059AB","48904","6897.544","95.017","525.951","512.868","1"
"GENERATED VIA SPACETRACK.ORG API","18 SPCS","48904","SPACEBEE-111","PAYLOAD","U","21059AB","2022-04-28 08:33:34","335360","15.15517704","0.0009484","97.5501","248.6405","275.2931","84.7219","0","999","4636","0.00096518","0.0001827","0","3420061","0 SPACEBEE-111","1 48904U 21059AB  22118.35664740  .00018270  00000-0  96518-3 0  9991","2 48904  97.5501 248.6405 0009484 275.2931  84.7219 15.15517704 46363","2021-059AB","48904","6897.544","95.017","525.951","512.868","1"
"GENERATED VIA SPACETRACK.ORG API","18 SPCS","48904","SPACEBEE-111","PAYLOAD","U","21059AB","2022-04-29 08:19:42","947904","15.15553273","0.0009472","97.5504","249.6248","271.4681","88.5466","0","999","4651","0.00093781","0.00017767","0","3421553","0 SPACEBEE-111","1 48904U 21059AB  22119.34702486  .00017767  00000-0  93781-3 0  9990","2 48904  97.5504 249.6248 0009472 271.4681  88.5466 15.15553273 46513","2021-059AB","48904","6897.436","95.015","525.835","512.768","1"
"GENERATED VIA SPACETRACK.ORG API","18 SPCS","48904","SPACEBEE-111","PAYLOAD","U","21059AB","2022-04-29 14:40:00","933024","15.15559977","0.0009481","97.5504","249.8873","270.4439","89.5707","0","999","4655","0.00085654","0.00016221","0","3421700","0 SPACEBEE-111","1 48904U 21059AB  22119.61112191  .00016221  00000-0  85654-3 0  9992","2 48904  97.5504 249.8873 0009481 270.4439  89.5707 15.15559977 46559","2021-059AB","48904","6897.416","95.014","525.820","512.742","1"
"GENERATED VIA SPACETRACK.ORG API","18 SPCS","48904","SPACEBEE-111","PAYLOAD","U","21059AB","2022-04-29 21:00:18","740160","15.15570436","0.0009498","97.5506","250.1498","269.5067","90.5077","0","999","4659","0.00087619","0.000166","0","3421985","0 SPACEBEE-111","1 48904U 21059AB  22119.87521690  .00016600  00000-0  87619-3 0  9992","2 48904  97.5506 250.1498 0009498 269.5067  90.5077 15.15570436 46592","2021-059AB","48904","6897.384","95.014","525.800","512.698","1"
"GENERATED VIA SPACETRACK.ORG API","18 SPCS","48904","SPACEBEE-111","PAYLOAD","U","21059AB","2022-04-30 14:26:07","97856","15.15593291","0.0009555","97.5506","250.8716","266.7838","93.2301","0","999","4670","0.0008248","0.00015631","0","3422880","0 SPACEBEE-111","1 48904U 21059AB  22120.60147104  .00015631  00000-0  82480-3 0  9993","2 48904  97.5506 250.8716 0009555 266.7838  93.2301 15.15593291 46708","2021-059AB","48904","6897.315","95.012","525.770","512.590","1"
"GENERATED VIA SPACETRACK.ORG API","18 SPCS","48904","SPACEBEE-111","PAYLOAD","U","21059AB","2022-04-30 20:46:24","463488","15.15600035","0.0009598","97.5507","251.1341","265.7961","94.2175","0","999","4674","0.00074308","0.00014076","0","3423060","0 SPACEBEE-111","1 48904U 21059AB  22120.86556092  .00014076  00000-0  74308-3 0  9993","2 48904  97.5507 251.1341 0009598 265.7961  94.2175 15.15600035 46749","2021-059AB","48904","6897.295","95.012","525.780","512.539","1"
"GENERATED VIA SPACETRACK.ORG API","18 SPCS","48904","SPACEBEE-111","PAYLOAD","U","21059AB","2022-05-01 07:51:54","588096","15.1561366","0.0009635","97.5508","251.5934","264.118","95.8954","0","999","4681","0.0007362","0.0001395","0","3424314","0 SPACEBEE-111","1 48904U 21059AB  22121.32771514  .00013950  00000-0  73620-3 0  9999","2 48904  97.5508 251.5934 0009635 264.1180  95.8954 15.15613660 46818","2021-059AB","48904","6897.253","95.011","525.764","512.473","1"
"GENERATED VIA SPACETRACK.ORG API","18 SPCS","48904","SPACEBEE-111","PAYLOAD","U","21059AB","2022-05-01 20:32:28","644576","15.1562655","0.000969","97.5511","252.1185","262.2618","97.7514","0","999","4689","0.00068428","0.00012964","0","3424759","0 SPACEBEE-111","1 48904U 21059AB  22121.85588709  .00012964  00000-0  68428-3 0  9993","2 48904  97.5511 252.1185 0009690 262.2618  97.7514 15.15626550 46896","2021-059AB","48904","6897.214","95.010","525.762","512.396","1"
"GENERATED VIA SPACETRACK.ORG API","18 SPCS","48904","SPACEBEE-111","PAYLOAD","U","21059AB","2022-05-01 22:07:32","874528","15.15628252","0.0009694","97.5511","252.1841","262.0199","97.9933","0","999","4690","0.00068706","0.00013018","0","3424981","0 SPACEBEE-111","1 48904U 21059AB  22121.92190827  .00013018  00000-0  68706-3 0  9991","2 48904  97.5511 252.1841 0009694 262.0199  97.9933 15.15628252 46901","2021-059AB","48904","6897.209","95.010","525.760","512.388","1"
"GENERATED VIA SPACETRACK.ORG API","18 SPCS","48904","SPACEBEE-111","PAYLOAD","U","21059AB","2022-05-02 07:37:58","124640","15.15638038","0.0009698","97.5513","252.5779","260.7147","99.2989","0","999","4696","0.00066882","0.00012674","0","3425830","0 SPACEBEE-111","1 48904U 21059AB  22122.31803385  .00012674  00000-0  66882-3 0  9995","2 48904  97.5513 252.5779 0009698 260.7147  99.2989 15.15638038 46964","2021-059AB","48904","6897.179","95.009","525.733","512.355","1"
